[{"OBJECT_NAME":"STARLINK-2171","OBJECT_ID":"2021-017AJ","EPOCH":"2026-03-10T00:00:02.999808","MEAN_MOTION":15.70905931,"ECCENTRICITY":0.0002371,"INCLINATION":53.0436,"RA_OF_ASC_NODE":167.0252,"ARG_OF_PERICENTER":165.5816,"MEAN_ANOMALY":179.0332,"EPHEMERIS_TYPE":0,"CLASSIFICATION_TYPE":"U","NORAD_CAT_ID":47754,"ELEMENT_SET_NO":999,"REV_AT_EPOCH":590,"BSTAR":0.00011207161,"MEAN_MOTION_DOT":0.00013697,"MEAN_MOTION_DDOT":0},{"OBJECT_NAME":"STARLINK-11371 [DTC]","OBJECT_ID":"2025-024A","EPOCH":"2026-03-09T08:58:24.036384","MEAN_MOTION":15.70937521,"ECCENTRICITY":0.00028213,"INCLINATION":43.0009,"RA_OF_ASC_NODE":183.6562,"ARG_OF_PERICENTER":256.8311,"MEAN_ANOMALY":103.2242,"EPHEMERIS_TYPE":0,"CLASSIFICATION_TYPE":"U","NORAD_CAT_ID":62879,"ELEMENT_SET_NO":999,"REV_AT_EPOCH":6341,"BSTAR":0.001735119,"MEAN_MOTION_DOT":0.00229396,"MEAN_MOTION_DDOT":0}]
